  apogee_km: 474.0
  perigee_km: 459.0
  period_min: 93.9
  inclination_deg: 97.7
  swath_width_km: 45.0
  num_terminal: 1
  battery_capacity_wh: 3920.0
  storage_capacity_mb: 480000.0
  obs_store_rate_mb_per_min: 36000.0
  downlink_release_rate_mb_per_min: 36000.0
  charge_rate_w: 2500.0
  idle_discharge_rate_w: 800.0
  obs_discharge_rate_w: 1500.0
  downlink_discharge_rate_w: 150.0
  max_slew_velocity_deg_per_sec: 0.7
  max_slew_acceleration_deg_per_sec2: 0.08
  max_slew_jerk_deg_per_sec3: null
  settling_time_sec: 2.5
  initial_storage_mb: 240000.0
  initial_battery_wh: 1960.0
- id: sat_gaofen-9_01
  name: GAOFEN-9 01
  norad_id: '40894'
  constellation: GAOFEN
  owner: PRC
  tle_epoch: '2025-07-17T04:58:08.973Z'
  tle_line1: 1 40894U 15047A   25198.20704830  .00000793  00000-0  10588-3 0  9995
  tle_line2: 2 40894  97.6751 243.4116 0028524 155.4296 204.8284 14.81930262530569
  apogee_km: 643.0
  perigee_km: 603.0
  period_min: 97.2
  inclination_deg: 97.7
  swath_width_km: 45.0
  num_terminal: 1
  battery_capacity_wh: 3920.0
  storage_capacity_mb: 480000.0
  obs_store_rate_mb_per_min: 36000.0
  downlink_release_rate_mb_per_min: 36000.0
  charge_rate_w: 2500.0
  idle_discharge_rate_w: 800.0
  obs_discharge_rate_w: 1500.0
  downlink_discharge_rate_w: 150.0
  max_slew_velocity_deg_per_sec: 0.7
  max_slew_acceleration_deg_per_sec2: 0.08
  max_slew_jerk_deg_per_sec3: null
  settling_time_sec: 2.5
  initial_storage_mb: 240000.0
  initial_battery_wh: 1960.0
- id: sat_ziyuan_3-2
  name: ZIYUAN 3-2
  norad_id: '41556'
  constellation: ZIYUAN
  owner: PRC
  tle_epoch: '2025-07-17T04:50:59.390Z'
  tle_line1: 1 41556U 16033A   25198.20207628  .00005164  00000-0  23303-3 0  9996
  tle_line2: 2 41556  97.4179 274.6984 0011211  48.0502 312.1687 15.21380256507053
  apogee_km: 509.0
  perigee_km: 494.0
  period_min: 94.7
  inclination_deg: 97.40000000000002
  swath_width_km: 51.0
  num_terminal: 1
  battery_capacity_wh: 3500.0
  storage_capacity_mb: 1000000.0
  obs_store_rate_mb_per_min: 36000.0
  downlink_release_rate_mb_per_min: 36000.0
  charge_rate_w: 1500.0
  idle_discharge_rate_w: 600.0
  obs_discharge_rate_w: 1100.0
  downlink_discharge_rate_w: 150.0
  max_slew_velocity_deg_per_sec: 1.0
  max_slew_acceleration_deg_per_sec2: 0.1
  max_slew_jerk_deg_per_sec3: null
  settling_time_sec: 2.0
  initial_storage_mb: 500000.0
  initial_battery_wh: 1750.0
- id: sat_gaofen-3
  name: GAOFEN-3
  norad_id: '41727'
  constellation: GAOFEN
  owner: PRC
  tle_epoch: '2025-07-17T04:44:22.265Z'
  tle_line1: 1 41727U 16049A   25198.19747992  .00000012  00000-0  16852-4 0  9993
  tle_line2: 2 41727  98.4033 205.9943 0001995  90.4748 269.6670 14.42218897470359
  apogee_km: 753.0
  perigee_km: 750.0
  period_min: 99.9
  inclination_deg: 98.40000000000002
  swath_width_km: 45.0
  num_terminal: 1
  battery_capacity_wh: 3920.0
  storage_capacity_mb: 480000.0
  obs_store_rate_mb_per_min: 36000.0
  downlink_release_rate_mb_per_min: 36000.0
  charge_rate_w: 2500.0
  idle_discharge_rate_w: 800.0
  obs_discharge_rate_w: 1500.0
  downlink_discharge_rate_w: 150.0
  max_slew_velocity_deg_per_sec: 0.7
  max_slew_acceleration_deg_per_sec2: 0.08
  max_slew_jerk_deg_per_sec3: null
  settling_time_sec: 2.5
  initial_storage_mb: 240000.0
  initial_battery_wh: 1960.0
- id: sat_gaofen-3_deb
  name: GAOFEN-3 DEB
  norad_id: '42678'
  constellation: GAOFEN
  owner: PRC
  tle_epoch: '2025-07-16T06:52:15.897Z'
  tle_line1: 1 42678U 16049C   25197.28629511  .00000123  00000-0  46189-4 0  9993
  tle_line2: 2 42678  98.3237 209.7158 0007414 298.4851  61.5594 14.46549825465357
  apogee_km: 742.0
  perigee_km: 732.0
  period_min: 99.6
  inclination_deg: 98.3
  swath_width_km: 45.0
  num_terminal: 1
  battery_capacity_wh: 3920.0
  storage_capacity_mb: 480000.0
  obs_store_rate_mb_per_min: 36000.0
  downlink_release_rate_mb_per_min: 36000.0
  charge_rate_w: 2500.0
  idle_discharge_rate_w: 800.0
  obs_discharge_rate_w: 1500.0
  downlink_discharge_rate_w: 150.0
  max_slew_velocity_deg_per_sec: 0.7
  max_slew_acceleration_deg_per_sec2: 0.08
  max_slew_jerk_deg_per_sec3: null
  settling_time_sec: 2.5
  initial_storage_mb: 240000.0
  initial_battery_wh: 1960.0
- id: sat_gaofen-1_02
  name: GAOFEN-1 02
  norad_id: '43259'
  constellation: GAOFEN
  owner: PRC
  tle_epoch: '2025-07-17T04:13:38.346Z'
  tle_line1: 1 43259U 18031A   25198.17613827  .00000610  00000-0  94318-4 0  9992
  tle_line2: 2 43259  97.7706 258.0861 0005470  13.0285 347.1066 14.76603027393262
  apogee_km: 644.0
  perigee_km: 636.0
  period_min: 97.5
  inclination_deg: 97.8
  swath_width_km: 45.0
  num_terminal: 1
  battery_capacity_wh: 3920.0
  storage_capacity_mb: 480000.0
  obs_store_rate_mb_per_min: 36000.0
  downlink_release_rate_mb_per_min: 36000.0
  charge_rate_w: 2500.0
  idle_discharge_rate_w: 800.0
  obs_discharge_rate_w: 1500.0
  downlink_discharge_rate_w: 150.0
  max_slew_velocity_deg_per_sec: 0.7
  max_slew_acceleration_deg_per_sec2: 0.08
  max_slew_jerk_deg_per_sec3: null
  settling_time_sec: 2.5
  initial_storage_mb: 240000.0
  initial_battery_wh: 1960.0
- id: sat_gaofen-1_03
  name: GAOFEN-1 03
  norad_id: '43260'
  constellation: GAOFEN
  owner: PRC
  tle_epoch: '2025-07-17T03:42:11.187Z'
  tle_line1: 1 43260U 18031B   25198.15429615  .00000529  00000-0  82804-4 0  9998
  tle_line2: 2 43260  97.7700 257.9565 0006621  44.6225 315.5518 14.76589752393258
  apogee_km: 645.0
  perigee_km: 635.0
  period_min: 97.5
  inclination_deg: 97.8
  swath_width_km: 45.0
  num_terminal: 1
  battery_capacity_wh: 3920.0
  storage_capacity_mb: 480000.0
  obs_store_rate_mb_per_min: 36000.0
  downlink_release_rate_mb_per_min: 36000.0
  charge_rate_w: 2500.0
  idle_discharge_rate_w: 800.0
  obs_discharge_rate_w: 1500.0
  downlink_discharge_rate_w: 150.0
  max_slew_velocity_deg_per_sec: 0.7
  max_slew_acceleration_deg_per_sec2: 0.08
  max_slew_jerk_deg_per_sec3: null
  settling_time_sec: 2.5
  initial_storage_mb: 240000.0
  initial_battery_wh: 1960.0
- id: sat_gaofen-1_04
  name: GAOFEN-1 04
  norad_id: '43262'
  constellation: GAOFEN
  owner: PRC
  tle_epoch: '2025-07-17T04:44:42.838Z'
  tle_line1: 1 43262U 18031D   25198.19771804  .00000609  00000-0  94145-4 0  9994
  tle_line2: 2 43262  97.7709 258.1492 0003241  54.9977 305.1537 14.76597159393250
  apogee_km: 642.0
  perigee_km: 638.0
  period_min: 97.5
  inclination_deg: 97.8
  swath_width_km: 45.0
  num_terminal: 1
  battery_capacity_wh: 3920.0
  storage_capacity_mb: 480000.0
  obs_store_rate_mb_per_min: 36000.0
  downlink_release_rate_mb_per_min: 36000.0
  charge_rate_w: 2500.0
  idle_discharge_rate_w: 800.0
  obs_discharge_rate_w: 1500.0
  downlink_discharge_rate_w: 150.0
  max_slew_velocity_deg_per_sec: 0.7
  max_slew_acceleration_deg_per_sec2: 0.08
  max_slew_jerk_deg_per_sec3: null
  settling_time_sec: 2.5
  initial_storage_mb: 240000.0
  initial_battery_wh: 1960.0
- id: sat_gaofen-5_01
  name: GAOFEN-5 01
  norad_id: '43461'
  constellation: GAOFEN
  owner: PRC
  tle_epoch: '2025-07-16T21:23:23.610Z'
  tle_line1: 1 43461U 18043A   25197.89124549  .00000262  00000-0  64346-4 0  9997
  tle_line2: 2 43461  98.4076 158.4968 0002787  59.7770 300.3706 14.60188310382750
  apogee_km: 695.0
  perigee_km: 691.0
  period_min: 98.6
  inclination_deg: 98.40000000000002
  swath_width_km: 45.0
  num_terminal: 1
  battery_capacity_wh: 3920.0
  storage_capacity_mb: 480000.0
  obs_store_rate_mb_per_min: 36000.0
  downlink_release_rate_mb_per_min: 36000.0
  charge_rate_w: 2500.0
  idle_discharge_rate_w: 800.0
  obs_discharge_rate_w: 1500.0
  downlink_discharge_rate_w: 150.0
  max_slew_velocity_deg_per_sec: 0.7
  max_slew_acceleration_deg_per_sec2: 0.08
  max_slew_jerk_deg_per_sec3: null
  settling_time_sec: 2.5
  initial_storage_mb: 240000.0
  initial_battery_wh: 1960.0
- id: sat_gaofen-6
  name: GAOFEN-6
  norad_id: '43484'
  constellation: GAOFEN
  owner: PRC
  tle_epoch: '2025-07-17T04:14:30.029Z'
  tle_line1: 1 43484U 18048A   25198.17673645  .00000525  00000-0  82226-4 0  9994
  tle_line2: 2 43484  97.8217 267.2502 0012961 170.9440 189.2006 14.76601476383953
  apogee_km: 649.0
  perigee_km: 631.0
  period_min: 97.5
  inclination_deg: 97.8
  swath_width_km: 45.0
  num_terminal: 1
  battery_capacity_wh: 3920.0
  storage_capacity_mb: 480000.0
  obs_store_rate_mb_per_min: 36000.0
  downlink_release_rate_mb_per_min: 36000.0
  charge_rate_w: 2500.0
  idle_discharge_rate_w: 800.0
  obs_discharge_rate_w: 1500.0
  downlink_discharge_rate_w: 150.0
  max_slew_velocity_deg_per_sec: 0.7
  max_slew_acceleration_deg_per_sec2: 0.08
  max_slew_jerk_deg_per_sec3: null
  settling_time_sec: 2.5
  initial_storage_mb: 240000.0
  initial_battery_wh: 1960.0
- id: sat_gaofen-11_01
  name: GAOFEN-11 01
  norad_id: '43585'
  constellation: GAOFEN
  owner: PRC
  tle_epoch: '2025-07-17T04:38:53.176Z'
  tle_line1: 1 43585U 18063A   25198.19367102  .00010051  00000-0  21933-3 0  9995
  tle_line2: 2 43585  97.1771 262.7390 0007814 119.5586 240.6443 15.44378304388464
  apogee_km: 439.0
  perigee_km: 428.0
  period_min: 93.2
  inclination_deg: 97.2
  swath_width_km: 45.0
  num_terminal: 1
  battery_capacity_wh: 3920.0
  storage_capacity_mb: 480000.0
  obs_store_rate_mb_per_min: 36000.0
  downlink_release_rate_mb_per_min: 36000.0
  charge_rate_w: 2500.0
  idle_discharge_rate_w: 800.0
  obs_discharge_rate_w: 1500.0
  downlink_discharge_rate_w: 150.0
  max_slew_velocity_deg_per_sec: 0.7
  max_slew_acceleration_deg_per_sec2: 0.08
  max_slew_jerk_deg_per_sec3: null
  settling_time_sec: 2.5
  initial_storage_mb: 240000.0
  initial_battery_wh: 1960.0
- id: sat_jilin-1_gaofen
  name: JILIN-1 GAOFEN
  norad_id: '44312'
  constellation: GAOFEN
  owner: PRC
  tle_epoch: '2025-07-16T21:50:58.292Z'
  tle_line1: 1 44312U 19032C   25197.91039690  .00006233  00000-0  26873-3 0  9993
  tle_line2: 2 44312  44.9803  29.2359 0011809 192.0192 168.0409 15.23360196336632
  apogee_km: 504.0
  perigee_km: 488.0
  period_min: 94.5
  inclination_deg: 45.0
  swath_width_km: 45.0
  num_terminal: 1
  battery_capacity_wh: 3920.0
